[
    {
        "OBJECT_NAME": "ISS (ZARYA)",
        "OBJECT_ID": "1998-067A",
        "EPOCH": "2024-12-11T13:56:26.011104",
        "MEAN_MOTION": 15.50486876,
        "ECCENTRICITY": 0.0007053,
        "INCLINATION": 51.6389,
        "RA_OF_ASC_NODE": 156.5072,
        "ARG_OF_PERICENTER": 328.6631,
        "MEAN_ANOMALY": 66.3051,
        "EPHEMERIS_TYPE": 0,
        "CLASSIFICATION_TYPE": "U",
        "NORAD_CAT_ID": 25544,
        "ELEMENT_SET_NO": 999,
        "REV_AT_EPOCH": 48606,
        "BSTAR": 0.00034772,
        "MEAN_MOTION_DOT": 0.00019796,
        "MEAN_MOTION_DDOT": 0,
        "date_fetched": "2024-12-11T19:13:07.296567Z"
    },
    {
        "OBJECT_NAME": "ISS (ZARYA)",
        "OBJECT_ID": "1998-067A",
        "EPOCH": "2024-12-11T23:40:53.380416",
        "MEAN_MOTION": 15.50504106,
        "ECCENTRICITY": 0.00072,
        "INCLINATION": 51.6393,
        "RA_OF_ASC_NODE": 154.4947,
        "ARG_OF_PERICENTER": 331.097,
        "MEAN_ANOMALY": 170.8608,
        "EPHEMERIS_TYPE": 0,
        "CLASSIFICATION_TYPE": "U",
        "NORAD_CAT_ID": 25544,
        "ELEMENT_SET_NO": 999,
        "REV_AT_EPOCH": 48612,
        "BSTAR": 0.00035072,
        "MEAN_MOTION_DOT": 0.00019985,
        "MEAN_MOTION_DDOT": 0,
        "date_fetched": "2024-12-12T02:25:27.788112Z"
    },
    {
        "OBJECT_NAME": "ISS (ZARYA)",
        "OBJECT_ID": "1998-067A",
        "EPOCH": "2024-12-12T16:32:36.364992",
        "MEAN_MOTION": 15.50528401,
        "ECCENTRICITY": 0.0007262,
        "INCLINATION": 51.6399,
        "RA_OF_ASC_NODE": 151.0098,
        "ARG_OF_PERICENTER": 333.4429,
        "MEAN_ANOMALY": 132.8004,
        "EPHEMERIS_TYPE": 0,
        "CLASSIFICATION_TYPE": "U",
        "NORAD_CAT_ID": 25544,
        "ELEMENT_SET_NO": 999,
        "REV_AT_EPOCH": 48623,
        "BSTAR": 0.00033842,
        "MEAN_MOTION_DOT": 0.00019283,
        "MEAN_MOTION_DDOT": 0,
        "date_fetched": "2024-12-12T19:13:08.942726Z"
    },
    {
        "OBJECT_NAME": "ISS (ZARYA)",
        "OBJECT_ID": "1998-067A",
        "EPOCH": "2024-12-12T22:51:32.714208",
        "MEAN_MOTION": 15.50536434,
        "ECCENTRICITY": 0.0007501,
        "INCLINATION": 51.6388,
        "RA_OF_ASC_NODE": 149.7053,
        "ARG_OF_PERICENTER": 335.8963,
        "MEAN_ANOMALY": 160.2029,
        "EPHEMERIS_TYPE": 0,
        "CLASSIFICATION_TYPE": "U",
        "NORAD_CAT_ID": 25544,
        "ELEMENT_SET_NO": 999,
        "REV_AT_EPOCH": 48627,
        "BSTAR": 0.00032977,
        "MEAN_MOTION_DOT": 0.00018784,
        "MEAN_MOTION_DDOT": 0,
        "date_fetched": "2024-12-13T02:27:09.048959Z"
    },
    {
        "OBJECT_NAME": "ISS (ZARYA)",
        "OBJECT_ID": "1998-067A",
        "EPOCH": "2024-12-13T12:29:45.393792",
        "MEAN_MOTION": 15.50554971,
        "ECCENTRICITY": 0.0007514,
        "INCLINATION": 51.6382,
        "RA_OF_ASC_NODE": 146.8875,
        "ARG_OF_PERICENTER": 337.6659,
        "MEAN_ANOMALY": 92.2067,
        "EPHEMERIS_TYPE": 0,
        "CLASSIFICATION_TYPE": "U",
        "NORAD_CAT_ID": 25544,
        "ELEMENT_SET_NO": 999,
        "REV_AT_EPOCH": 48636,
        "BSTAR": 0.00031874,
        "MEAN_MOTION_DOT": 0.00018151,
        "MEAN_MOTION_DDOT": 0,
        "date_fetched": "2024-12-13T19:12:56.180569Z"
    },
    {
        "OBJECT_NAME": "ISS (ZARYA)",
        "OBJECT_ID": "1998-067A",
        "EPOCH": "2024-12-13T22:03:32.721408",
        "MEAN_MOTION": 15.50565218,
        "ECCENTRICITY": 0.0007506,
        "INCLINATION": 51.638,
        "RA_OF_ASC_NODE": 144.912,
        "ARG_OF_PERICENTER": 339.424,
        "MEAN_ANOMALY": 156.1386,
        "EPHEMERIS_TYPE": 0,
        "CLASSIFICATION_TYPE": "U",
        "NORAD_CAT_ID": 25544,
        "ELEMENT_SET_NO": 999,
        "REV_AT_EPOCH": 48642,
        "BSTAR": 0.00030382,
        "MEAN_MOTION_DOT": 0.00017284,
        "MEAN_MOTION_DDOT": 0,
        "date_fetched": "2024-12-14T02:21:41.238375Z"
    },
    {
        "OBJECT_NAME": "ISS (ZARYA)",
        "OBJECT_ID": "1998-067A",
        "EPOCH": "2024-12-14T03:39:51.038784",
        "MEAN_MOTION": 15.50566691,
        "ECCENTRICITY": 0.0007426,
        "INCLINATION": 51.6372,
        "RA_OF_ASC_NODE": 143.7602,
        "ARG_OF_PERICENTER": 339.1508,
        "MEAN_ANOMALY": 20.9177,
        "EPHEMERIS_TYPE": 0,
        "CLASSIFICATION_TYPE": "U",
        "NORAD_CAT_ID": 25544,
        "ELEMENT_SET_NO": 999,
        "REV_AT_EPOCH": 48646,
        "BSTAR": 0.00026335,
        "MEAN_MOTION_DOT": 0.00014916,
        "MEAN_MOTION_DDOT": 0,
        "date_fetched": "2024-12-14T13:21:22.414602Z"
    },
    {
        "OBJECT_NAME": "ISS (ZARYA)",
        "OBJECT_ID": "1998-067A",
        "EPOCH": "2024-12-14T22:50:44.987712",
        "MEAN_MOTION": 15.50594411,
        "ECCENTRICITY": 0.0007433,
        "INCLINATION": 51.6381,
        "RA_OF_ASC_NODE": 139.7915,
        "ARG_OF_PERICENTER": 343.8593,
        "MEAN_ANOMALY": 160.566,
        "EPHEMERIS_TYPE": 0,
        "CLASSIFICATION_TYPE": "U",
        "NORAD_CAT_ID": 25544,
        "ELEMENT_SET_NO": 999,
        "REV_AT_EPOCH": 48658,
        "BSTAR": 0.00028241,
        "MEAN_MOTION_DOT": 0.00016047,
        "MEAN_MOTION_DDOT": 0,
        "date_fetched": "2024-12-15T02:38:23.606211Z"
    },
    {
        "OBJECT_NAME": "ISS (ZARYA)",
        "OBJECT_ID": "1998-067A",
        "EPOCH": "2024-12-15T09:13:09.982848",
        "MEAN_MOTION": 15.50608004,
        "ECCENTRICITY": 0.0007546,
        "INCLINATION": 51.6382,
        "RA_OF_ASC_NODE": 137.6473,
        "ARG_OF_PERICENTER": 345.642,
        "MEAN_ANOMALY": 53.1763,
        "EPHEMERIS_TYPE": 0,
        "CLASSIFICATION_TYPE": "U",
        "NORAD_CAT_ID": 25544,
        "ELEMENT_SET_NO": 999,
        "REV_AT_EPOCH": 48665,
        "BSTAR": 0.00027987,
        "MEAN_MOTION_DOT": 0.00015906,
        "MEAN_MOTION_DDOT": 0,
        "date_fetched": "2024-12-15T13:21:37.928650Z"
    },
    {
        "OBJECT_NAME": "ISS (ZARYA)",
        "OBJECT_ID": "1998-067A",
        "EPOCH": "2024-12-15T14:01:07.460832",
        "MEAN_MOTION": 15.50613257,
        "ECCENTRICITY": 0.0007513,
        "INCLINATION": 51.6385,
        "RA_OF_ASC_NODE": 136.6555,
        "ARG_OF_PERICENTER": 346.3146,
        "MEAN_ANOMALY": 89.5137,
        "EPHEMERIS_TYPE": 0,
        "CLASSIFICATION_TYPE": "U",
        "NORAD_CAT_ID": 25544,
        "ELEMENT_SET_NO": 999,
        "REV_AT_EPOCH": 48668,
        "BSTAR": 0.00027585,
        "MEAN_MOTION_DOT": 0.00015674,
        "MEAN_MOTION_DDOT": 0,
        "date_fetched": "2024-12-15T19:11:52.722935Z"
    },
    {
        "OBJECT_NAME": "ISS (ZARYA)",
        "OBJECT_ID": "1998-067A",
        "EPOCH": "2024-12-15T20:32:39.726240",
        "MEAN_MOTION": 15.50621428,
        "ECCENTRICITY": 0.0007541,
        "INCLINATION": 51.6382,
        "RA_OF_ASC_NODE": 135.3074,
        "ARG_OF_PERICENTER": 347.5122,
        "MEAN_ANOMALY": 167.1307,
        "EPHEMERIS_TYPE": 0,
        "CLASSIFICATION_TYPE": "U",
        "NORAD_CAT_ID": 25544,
        "ELEMENT_SET_NO": 999,
        "REV_AT_EPOCH": 48672,
        "BSTAR": 0.00027394,
        "MEAN_MOTION_DOT": 0.00015567,
        "MEAN_MOTION_DDOT": 0,
        "date_fetched": "2024-12-16T02:35:44.588896Z"
    },
    {
        "OBJECT_NAME": "ISS (ZARYA)",
        "OBJECT_ID": "1998-067A",
        "EPOCH": "2024-12-15T21:25:37.276320",
        "MEAN_MOTION": 15.50624323,
        "ECCENTRICITY": 0.0007555,
        "INCLINATION": 51.6375,
        "RA_OF_ASC_NODE": 135.1316,
        "ARG_OF_PERICENTER": 345.0591,
        "MEAN_ANOMALY": 15.0174,
        "EPHEMERIS_TYPE": 0,
        "CLASSIFICATION_TYPE": "U",
        "NORAD_CAT_ID": 25544,
        "ELEMENT_SET_NO": 999,
        "REV_AT_EPOCH": 48673,
        "BSTAR": 0.00029887,
        "MEAN_MOTION_DOT": 0.00017031,
        "MEAN_MOTION_DDOT": 0,
        "date_fetched": "2024-12-16T07:16:42.601724Z"
    }
]