1 25544U 98067A   24350.89279255  .00017031  00000-0  29887-3 0  9990
2 25544  51.6375 135.1316 0007555 345.0591  15.0174 15.50624323486735
1 25544U 98067A   24350.85601535  .00015567  00000-0  27394-3 0  9999
2 25544  51.6382 135.3074 0007541 347.5122 167.1307 15.50621428486727
1 25544U 98067A   24350.58411413  .00015674  00000-0  27585-3 0  9994
2 25544  51.6385 136.6555 0007513 346.3146  89.5137 15.50613257486684
1 25544U 98067A   24350.38414332  .00015906  00000-0  27987-3 0  9999
2 25544  51.6382 137.6473 0007546 345.6420  53.1763 15.50608004486657
1 25544U 98067A   24349.95190958  .00016047  00000-0  28241-3 0  9996
2 25544  51.6381 139.7915 0007433 343.8593 160.5660 15.50594411486583
1 25544U 98067A   24349.15267406  .00014916  00000-0  26335-3 0  9996
2 25544  51.6372 143.7602 0007426 339.1508  20.9177 15.50566691486465
1 25544U 98067A   24348.91912872  .00017284  00000-0  30382-3 0  9991
2 25544  51.6380 144.9120 0007506 339.4240 156.1386 15.50565218486421
1 25544U 98067A   24348.52066428  .00018151  00000-0  31874-3 0  9996
2 25544  51.6382 146.8875 0007514 337.6659  92.2067 15.50554971486367
1 25544U 98067A   24347.95246197  .00018784  00000-0  32977-3 0  9992
2 25544  51.6388 149.7053 0007501 335.8963 160.2029 15.50536434486275
1 25544U 98067A   24347.68930978  .00019283  00000-0  33842-3 0  9996
2 25544  51.6399 151.0098 0007262 333.4429 132.8004 15.50528401486236
1 25544U 98067A   24346.98672894  .00019985  00000-0  35072-3 0  9994
2 25544  51.6393 154.4947 0007200 331.0970 170.8608 15.50504106486123
1 25544U 98067A   24346.58085661  .00019796  00000-0  34772-3 0  9996
2 25544  51.6389 156.5072 0007053 328.6631  66.3051 15.50486876486069
